start=new Date('2022-11-25T00:00:00.000Z').valueOf();
sats=[{"MEAN_ELEMENT_THEORY":"SGP4","TIME_SYSTEM":"UTC","MEAN_ANOMALY":"289.1100","ARG_OF_PERICENTER":"71.0064","TLE_LINE1":"1 48106U 21027Q   22328.77940463  .00001357  00000-0  10996-3 0  9992","ELEMENT_SET_NO":"999","PERIAPSIS":"546.089","INCLINATION":"53.0547","APOAPSIS":"548.333","SITE":"AFETR","TLE_LINE2":"2 48106  53.0547 142.7353 0001620  71.0064 289.1100 15.06400780 91694","FILE":"3669335","LAUNCH_DATE":"2021-04-07","OBJECT_ID":"2021-027Q","MEAN_MOTION":"15.06400780","PERIOD":"95.592","OBJECT_TYPE":"PAYLOAD","SEMIMAJOR_AXIS":"6925.346","REV_AT_EPOCH":"9169","CLASSIFICATION_TYPE":"U","MEAN_MOTION_DOT":"0.00001357","MEAN_MOTION_DDOT":"0.0000000000000","REF_FRAME":"TEME","ECCENTRICITY":"0.00016200","OBJECT_NAME":"STARLINK-2442","COUNTRY_CODE":"US","EPHEMERIS_TYPE":"0","NORAD_CAT_ID":"48106","DECAY_DATE":null,"GP_ID":"218721874","EPOCH":"2022-11-24T18:42:20.560032","BSTAR":"0.00010996000000","RCS_SIZE":"LARGE","CENTER_NAME":"EARTH","RA_OF_ASC_NODE":"142.7353"},{"GP_ID":"218722124","DECAY_DATE":null,"RA_OF_ASC_NODE":"142.3585","CENTER_NAME":"EARTH","RCS_SIZE":"LARGE","BSTAR":"0.00003524300000","EPOCH":"2022-11-24T20:39:05.704416","COUNTRY_CODE":"US","EPHEMERIS_TYPE":"0","OBJECT_NAME":"STARLINK-2443","ECCENTRICITY":"0.00015390","MEAN_MOTION_DDOT":"0.0000000000000","REF_FRAME":"TEME","NORAD_CAT_ID":"48107","OBJECT_TYPE":"PAYLOAD","MEAN_MOTION":"15.06403146","PERIOD":"95.592","OBJECT_ID":"2021-027R","LAUNCH_DATE":"2021-04-07","FILE":"3669335","MEAN_MOTION_DOT":"0.00000243","REV_AT_EPOCH":"9170","CLASSIFICATION_TYPE":"U","SEMIMAJOR_AXIS":"6925.339","ELEMENT_SET_NO":"999","TLE_LINE1":"1 48107U 21027R   22328.86048269  .00000243  00000-0  35243-4 0  9992","ARG_OF_PERICENTER":"81.4921","MEAN_ANOMALY":"278.6242","TIME_SYSTEM":"UTC","MEAN_ELEMENT_THEORY":"SGP4","TLE_LINE2":"2 48107  53.0530 142.3585 0001539  81.4921 278.6242 15.06403146 91707","APOAPSIS":"548.270","SITE":"AFETR","INCLINATION":"53.0530","PERIAPSIS":"546.138"},{"PERIAPSIS":"546.009","INCLINATION":"53.0539","APOAPSIS":"548.489","SITE":"AFETR","TLE_LINE2":"2 48108  53.0539 152.1751 0001791  70.7636 289.3547 15.06388406 91567","MEAN_ELEMENT_THEORY":"SGP4","TIME_SYSTEM":"UTC","MEAN_ANOMALY":"289.3547","ARG_OF_PERICENTER":"70.7636","TLE_LINE1":"1 48108U 21027S   22328.90011482  .00001070  00000-0  90779-4 0  9999","ELEMENT_SET_NO":"999","SEMIMAJOR_AXIS":"6925.384","CLASSIFICATION_TYPE":"U","REV_AT_EPOCH":"9156","MEAN_MOTION_DOT":"0.00001070","FILE":"3669335","LAUNCH_DATE":"2021-04-07","OBJECT_ID":"2021-027S","PERIOD":"95.593","MEAN_MOTION":"15.06388406","OBJECT_TYPE":"PAYLOAD","NORAD_CAT_ID":"48108","MEAN_MOTION_DDOT":"0.0000000000000","REF_FRAME":"TEME","ECCENTRICITY":"0.00017910","OBJECT_NAME":"STARLINK-2444","EPHEMERIS_TYPE":"0","COUNTRY_CODE":"US","EPOCH":"2022-11-24T21:36:09.920448","RCS_SIZE":"LARGE","BSTAR":"0.00009077900000","CENTER_NAME":"EARTH","RA_OF_ASC_NODE":"152.1751","DECAY_DATE":null,"GP_ID":"218723375"},{"TLE_LINE2":"2 48109  53.0550 162.4150 0001958  72.6630 287.4573 15.06401852 91422","INCLINATION":"53.0550","APOAPSIS":"548.564","SITE":"AFETR","PERIAPSIS":"545.852","TLE_LINE1":"1 48109U 21027T   22328.84757991  .00000251  00000-0  35738-4 0  9999","ELEMENT_SET_NO":"999","MEAN_ANOMALY":"287.4573","ARG_OF_PERICENTER":"72.6630","MEAN_ELEMENT_THEORY":"SGP4","TIME_SYSTEM":"UTC","MEAN_MOTION_DOT":"0.00000251","SEMIMAJOR_AXIS":"6925.343","REV_AT_EPOCH":"9142","CLASSIFICATION_TYPE":"U","OBJECT_TYPE":"PAYLOAD","LAUNCH_DATE":"2021-04-07","OBJECT_ID":"2021-027T","PERIOD":"95.592","MEAN_MOTION":"15.06401852","FILE":"3669335","NORAD_CAT_ID":"48109","COUNTRY_CODE":"US","EPHEMERIS_TYPE":"0","OBJECT_NAME":"STARLINK-2445","ECCENTRICITY":"0.00019580","MEAN_MOTION_DDOT":"0.0000000000000","REF_FRAME":"TEME","RA_OF_ASC_NODE":"162.4150","RCS_SIZE":"LARGE","BSTAR":"0.00003573800000","CENTER_NAME":"EARTH","EPOCH":"2022-11-24T20:20:30.904224","GP_ID":"218723120","DECAY_DATE":null},{"RA_OF_ASC_NODE":"152.5263","BSTAR":"0.00008188300000","RCS_SIZE":"LARGE","CENTER_NAME":"EARTH","EPOCH":"2022-11-24T19:44:41.059680","GP_ID":"218722374","DECAY_DATE":null,"NORAD_CAT_ID":"48110","EPHEMERIS_TYPE":"0","COUNTRY_CODE":"US","OBJECT_NAME":"STARLINK-2447","ECCENTRICITY":"0.00015320","REF_FRAME":"TEME","MEAN_MOTION_DDOT":"0.0000000000000","MEAN_MOTION_DOT":"0.00000938","SEMIMAJOR_AXIS":"6925.360","CLASSIFICATION_TYPE":"U","REV_AT_EPOCH":"9156","OBJECT_TYPE":"PAYLOAD","LAUNCH_DATE":"2021-04-07","OBJECT_ID":"2021-027U","MEAN_MOTION":"15.06396234","PERIOD":"95.592","FILE":"3669335","TLE_LINE2":"2 48110  53.0548 152.5263 0001532  71.9095 288.2061 15.06396234 91564","INCLINATION":"53.0548","SITE":"AFETR","APOAPSIS":"548.286","PERIAPSIS":"546.164","TLE_LINE1":"1 48110U 21027U   22328.82269745  .00000938  00000-0  81883-4 0  9998","ELEMENT_SET_NO":"999","MEAN_ANOMALY":"288.2061","ARG_OF_PERICENTER":"71.9095","MEAN_ELEMENT_THEORY":"SGP4","TIME_SYSTEM":"UTC"},{"SEMIMAJOR_AXIS":"6925.373","REV_AT_EPOCH":"9157","CLASSIFICATION_TYPE":"U","MEAN_MOTION_DOT":"0.00001474","FILE":"3669335","OBJECT_TYPE":"PAYLOAD","LAUNCH_DATE":"2021-04-07","OBJECT_ID":"2021-027V","MEAN_MOTION":"15.06392129","PERIOD":"95.593","PERIAPSIS":"546.262","TLE_LINE2":"2 48111  53.0537 152.2408 0001409  87.4671 272.6479 15.06392129 91576","INCLINATION":"53.0537","APOAPSIS":"548.213","SITE":"AFETR","MEAN_ANOMALY":"272.6479","ARG_OF_PERICENTER":"87.4671","MEAN_ELEMENT_THEORY":"SGP4","TIME_SYSTEM":"UTC","TLE_LINE1":"1 48111U 21027V   22328.88167592  .00001474  00000-0  11787-3 0  9993","ELEMENT_SET_NO":"999","EPOCH":"2022-11-24T21:09:36.799488","RA_OF_ASC_NODE":"152.2408","RCS_SIZE":"LARGE","BSTAR":"0.00011787000000","CENTER_NAME":"EARTH","GP_ID":"218722624","DECAY_DATE":null,"NORAD_CAT_ID":"48111","ECCENTRICITY":"0.00014090","REF_FRAME":"TEME","MEAN_MOTION_DDOT":"0.0000000000000","COUNTRY_CODE":"US","EPHEMERIS_TYPE":"0","OBJECT_NAME":"STARLINK-2448"},{"PERIAPSIS":"545.792","INCLINATION":"53.0558","SITE":"AFETR","APOAPSIS":"548.686","TLE_LINE2":"2 48112  53.0558 168.0546 0002090  53.0969 307.0212 15.06391687 91334","MEAN_ELEMENT_THEORY":"SGP4","TIME_SYSTEM":"UTC","MEAN_ANOMALY":"307.0212","ARG_OF_PERICENTER":"53.0969","TLE_LINE1":"1 48112U 21027W   22328.74210066 -.00000651  00000-0 -24810-4 0  9994","ELEMENT_SET_NO":"999","SEMIMAJOR_AXIS":"6925.374","REV_AT_EPOCH":"9133","CLASSIFICATION_TYPE":"U","MEAN_MOTION_DOT":"-0.00000651","FILE":"3669335","OBJECT_ID":"2021-027W","LAUNCH_DATE":"2021-04-07","PERIOD":"95.593","MEAN_MOTION":"15.06391687","OBJECT_TYPE":"PAYLOAD","NORAD_CAT_ID":"48112","REF_FRAME":"TEME","MEAN_MOTION_DDOT":"0.0000000000000","ECCENTRICITY":"0.00020900","OBJECT_NAME":"STARLINK-2449","EPHEMERIS_TYPE":"0","COUNTRY_CODE":"US","EPOCH":"2022-11-24T17:48:37.497024","BSTAR":"-0.00002481000000","RCS_SIZE":"LARGE","CENTER_NAME":"EARTH","RA_OF_ASC_NODE":"168.0546","DECAY_DATE":null,"GP_ID":"218722876"},{"ECCENTRICITY":"0.00015280","REF_FRAME":"TEME","MEAN_MOTION_DDOT":"0.0000000000000","EPHEMERIS_TYPE":"0","COUNTRY_CODE":"US","OBJECT_NAME":"STARLINK-2450","NORAD_CAT_ID":"48113","GP_ID":"218723620","DECAY_DATE":null,"EPOCH":"2022-11-24T19:27:25.889184","RA_OF_ASC_NODE":"162.5851","CENTER_NAME":"EARTH","BSTAR":"0.00008302000000","RCS_SIZE":"LARGE","ARG_OF_PERICENTER":"78.0772","MEAN_ANOMALY":"282.0389","TIME_SYSTEM":"UTC","MEAN_ELEMENT_THEORY":"SGP4","ELEMENT_SET_NO":"999","TLE_LINE1":"1 48113U 21027X   22328.81071631  .00000955  00000-0  83020-4 0  9999","PERIAPSIS":"546.150","TLE_LINE2":"2 48113  53.0556 162.5851 0001528  78.0772 282.0389 15.06401689 91404","APOAPSIS":"548.267","SITE":"AFETR","INCLINATION":"53.0556","FILE":"3669335","OBJECT_TYPE":"PAYLOAD","PERIOD":"95.592","MEAN_MOTION":"15.06401689","OBJECT_ID":"2021-027X","LAUNCH_DATE":"2021-04-07","CLASSIFICATION_TYPE":"U","REV_AT_EPOCH":"9140","SEMIMAJOR_AXIS":"6925.343","MEAN_MOTION_DOT":"0.00000955"},{"PERIAPSIS":"546.317","TLE_LINE2":"2 48114  53.0536 157.7457 0001348 103.8540 256.2599 15.06388095 91480","APOAPSIS":"548.184","SITE":"AFETR","INCLINATION":"53.0536","ARG_OF_PERICENTER":"103.8540","MEAN_ANOMALY":"256.2599","TIME_SYSTEM":"UTC","MEAN_ELEMENT_THEORY":"SGP4","ELEMENT_SET_NO":"999","TLE_LINE1":"1 48114U 21027Y   22328.77154637  .00001053  00000-0  89570-4 0  9999","REV_AT_EPOCH":"9148","CLASSIFICATION_TYPE":"U","SEMIMAJOR_AXIS":"6925.385","MEAN_MOTION_DOT":"0.00001053","FILE":"3669335","OBJECT_TYPE":"PAYLOAD","MEAN_MOTION":"15.06388095","PERIOD":"95.593","LAUNCH_DATE":"2021-04-07","OBJECT_ID":"2021-027Y","NORAD_CAT_ID":"48114","ECCENTRICITY":"0.00013480","REF_FRAME":"TEME","MEAN_MOTION_DDOT":"0.0000000000000","EPHEMERIS_TYPE":"0","COUNTRY_CODE":"US","OBJECT_NAME":"STARLINK-2451","EPOCH":"2022-11-24T18:31:01.606368","RA_OF_ASC_NODE":"157.7457","CENTER_NAME":"EARTH","RCS_SIZE":"LARGE","BSTAR":"0.00008957000000","GP_ID":"218721875","DECAY_DATE":null},{"GP_ID":"218722125","DECAY_DATE":null,"RA_OF_ASC_NODE":"152.6303","BSTAR":"0.00008603700000","RCS_SIZE":"LARGE","CENTER_NAME":"EARTH","EPOCH":"2022-11-24T19:11:31.054272","COUNTRY_CODE":"US","EPHEMERIS_TYPE":"0","OBJECT_NAME":"STARLINK-2452","ECCENTRICITY":"0.00013870","MEAN_MOTION_DDOT":"0.0000000000000","REF_FRAME":"TEME","NORAD_CAT_ID":"48115","OBJECT_TYPE":"PAYLOAD","LAUNCH_DATE":"2021-04-07","OBJECT_ID":"2021-027Z","MEAN_MOTION":"15.06387048","PERIOD":"95.593","FILE":"3669335","MEAN_MOTION_DOT":"0.00001000","SEMIMAJOR_AXIS":"6925.388","REV_AT_EPOCH":"9155","CLASSIFICATION_TYPE":"U","TLE_LINE1":"1 48115U 21027Z   22328.79966498  .00001000  00000-0  86037-4 0  9995","ELEMENT_SET_NO":"999","MEAN_ANOMALY":"285.6864","ARG_OF_PERICENTER":"74.4278","MEAN_ELEMENT_THEORY":"SGP4","TIME_SYSTEM":"UTC","TLE_LINE2":"2 48115  53.0544 152.6303 0001387  74.4278 285.6864 15.06387048 91554","INCLINATION":"53.0544","SITE":"AFETR","APOAPSIS":"548.214","PERIAPSIS":"546.293"}];
